{
  "type": "FeatureCollection",
  "features": [
    {
      "type": "Feature",
      "properties": {
        "id": "A",
        "label": "severe_building_collapse",
        "severity": "high",
        "description": "厂区西南侧主体坍塌区，灾前连续屋顶消失，灾后出现大面积碎片堆积。"
      },
      "geometry": {
        "type": "Polygon",
        "coordinates": [[[109.25955393,24.36603582],[109.25955393,24.36576995],[109.25997849,24.36576995],[109.25997849,24.36603582],[109.25955393,24.36603582]]]
      }
    },
    {
      "type": "Feature",
      "properties": {
        "id": "B",
        "label": "roof_failure",
        "severity": "high",
        "description": "厂区西北侧屋面破坏区，屋顶边界破碎并与坍塌碎片连接。"
      },
      "geometry": {
        "type": "Polygon",
        "coordinates": [[[109.25950339,24.36618250],[109.25950339,24.36598081],[109.25976621,24.36598081],[109.25976621,24.36618250],[109.25950339,24.36618250]]]
      }
    },
    {
      "type": "Feature",
      "properties": {
        "id": "C",
        "label": "access_obstruction",
        "severity": "high",
        "description": "西侧内部通道被坍塌碎片侵占，可能影响救援进入。"
      },
      "geometry": {
        "type": "Polygon",
        "coordinates": [[[109.25945284,24.36603582],[109.25945284,24.36579745],[109.25965502,24.36579745],[109.25965502,24.36603582],[109.25945284,24.36603582]]]
      }
    },
    {
      "type": "Feature",
      "properties": {
        "id": "D",
        "label": "partial_roof_damage",
        "severity": "medium",
        "description": "中央屋顶区域出现纹理破碎和局部边界断裂，疑似中度屋面损伤。"
      },
      "geometry": {
        "type": "Polygon",
        "coordinates": [[[109.25976621,24.36616417],[109.25976621,24.36594414],[109.26018067,24.36594414],[109.26018067,24.36616417],[109.25976621,24.36616417]]]
      }
    },
    {
      "type": "Feature",
      "properties": {
        "id": "E",
        "label": "possible_roadside_debris",
        "severity": "low",
        "confidence": "low",
        "description": "北侧道路边缘疑似树木倒伏或杂物扰动，受阴影影响，建议低置信度处理。"
      },
      "geometry": {
        "type": "Polygon",
        "coordinates": [[[109.26004926,24.36646670],[109.26004926,24.36636586],[109.26032219,24.36636586],[109.26032219,24.36646670],[109.26004926,24.36646670]]]
      }
    },
    {
      "type": "Feature",
      "properties": {
        "id": "F",
        "label": "changed_non_damage",
        "severity": "none",
        "confidence": "medium",
        "description": "东侧院落变化明显，但缺少坍塌、屋面破碎、碎片堆积特征，可作为变化检测负样本。"
      },
      "geometry": {
        "type": "Polygon",
        "coordinates": [[[109.26036262,24.36624668],[109.26036262,24.36598081],[109.26057491,24.36598081],[109.26057491,24.36624668],[109.26036262,24.36624668]]]
      }
    }
  ]
}